0 SL-8 DEB *
1 14810U 81084D   13281.51500028  .00000749  00000-0  22846-3 0  9413
2 14810 073.9537 296.9521 0016807 037.6466 090.2116 14.43656741599551
0 SL-8 DEB *
1 14810U 81084D   13283.73162330  .00000835  00000-0  25364-3 0  9424
2 14810 073.9535 292.8112 0016890 032.9374 090.4543 14.43663611599873
0 SL-8 DEB *
1 14810U 81084D   13286.00050856  .00000868  00000-0  26313-3 0  9438
2 14810 073.9534 288.5725 0017019 028.0069 002.4677 14.43667282600204
0 SL-8 DEB *
1 14810U 81084D   13288.01629449  .00001437  00000-0  43047-3 0  9448
2 14810 073.9536 284.8065 0017136 023.6993 039.0117 14.43672407600490
0 SL-8 DEB *
1 14810U 81084D   13290.02450539  .00001305  00000-0  39159-3 0  9458
2 14810 073.9540 281.0546 0017210 019.5225 036.1166 14.43677603600780
0 SL-8 DEB *
1 14810U 81084D   13292.39897288  .00001382  00000-0  41416-3 0  9461
2 14810 073.9543 276.6186 0017308 014.5737 136.7954 14.43683285601128
0 SL-8 DEB *
1 14810U 81084D   13294.40893708  .00001526  00000-0  45635-3 0  9476
2 14810 073.9544 272.8635 0017366 010.3529 143.1321 14.43689402601412
